OBJECT_NAME,OBJECT_ID,EPOCH,MEAN_MOTION,ECCENTRICITY,INCLINATION,RA_OF_ASC_NODE,ARG_OF_PERICENTER,MEAN_ANOMALY,EPHEMERIS_TYPE,CLASSIFICATION_TYPE,NORAD_CAT_ID,ELEMENT_SET_NO,REV_AT_EPOCH,BSTAR,MEAN_MOTION_DOT,MEAN_MOTION_DDOT
SCD 1,1993-009B,2026-06-19T05:33:39.164256,14.46119368,.00419983,24.9676,194.9531,159.2806,244.6874,0,U,22490,999,76141,.35452425E-4,.316E-5,0
TECHSAT 1B (GO-32),1998-043D,2026-06-19T05:48:22.110048,14.24428734,.00011538,99.0068,163.0524,158.7829,201.3398,0,U,25397,999,45162,.34417329E-4,.33E-6,0
SCD 2,1998-060A,2026-06-19T02:46:22.291392,14.45526499,.00168933,24.9958,60.2648,143.0637,5.7775,0,U,25504,999,46060,.4571421E-4,.346E-5,0
DLR-TUBSAT,1999-029B,2026-06-19T05:20:11.659488,14.52427246,.00139226,98.6695,165.7934,348.9692,11.1195,0,U,25757,999,43354,.23574581E-4,.48E-6,0
TERRA,1999-068A,2026-06-19T06:57:16.279200,14.61104555,.00017575,97.9455,219.7527,182.5355,303.4138,0,U,25994,999,40991,.66439481E-4,.282E-5,0
MAROC-TUBSAT,2001-056D,2026-06-19T06:57:01.504800,13.70262496,.00203893,99.8083,347.1887,136.0283,43.7206,0,U,27004,999,22647,.9613301E-5,-.38E-6,0
AQUA,2002-022A,2026-06-19T06:05:26.329344,14.62160797,.00010229,98.4277,139.5779,54.2403,58.3339,0,U,27424,999,28357,.12818726E-3,.595E-5,0
SHIYAN-1 (SY-1),2004-012A,2026-06-19T04:56:42.881568,15.33804033,.00053938,97.8688,248.4057,26.0877,334.0635,0,U,28220,999,21140,.34393718E-3,.11166E-3,0
AURA,2004-026A,2026-06-19T05:53:44.649024,14.61331831,.00011884,98.3417,126.7160,76.5236,283.6097,0,U,28376,999,16651,.13447322E-3,.616E-5,0
IRS-P5 (CARTOSAT-1),2005-017A,2026-06-19T00:35:11.848416,14.91053350,.00025373,97.5306,193.0056,77.5439,282.6063,0,U,28649,999,14409,.11322273E-3,.1068E-4,0
SINAH 1,2005-043D,2026-06-19T07:25:28.146720,14.64158812,.00131344,98.2864,304.6438,269.4618,90.5079,0,U,28893,999,10083,.53392143E-4,.231E-5,0
RESURS-DK 1,2006-021A,2026-06-18T21:16:11.860032,15.13223482,.0006884,69.9330,335.1550,291.0960,68.9469,0,U,29228,999,10283,.94692E-4,.1578E-4,0
ARIRANG-2 (KOMPSAT-2),2006-031A,2026-06-19T07:05:06.225216,14.64660259,.00158742,97.8306,354.6391,68.7036,104.0665,0,U,29268,999,6178,.57701E-6,-.42E-6,0
LAPAN-TUBSAT,2007-001A,2026-06-19T06:35:16.128672,14.85950020,.00120583,98.1339,169.5456,172.6781,187.4612,0,U,29709,999,5146,.16384962E-4,.85E-6,0
HAIYANG-1B,2007-010A,2026-06-18T21:25:38.949024,14.31027257,.0013124,98.3495,151.6719,191.1687,168.9207,0,U,31113,999,88,.41153E-4,.67E-6,0
COSMO-SKYMED 1,2007-023A,2026-06-19T06:34:15.943296,14.97108574,.00014576,97.8850,2.1469,98.2200,261.9187,0,U,31598,999,3010,.20373535E-3,.2291E-4,0
TERRASAR-X,2007-026A,2026-06-17T14:05:11.304960,15.19150392,.00015603,97.4452,176.2866,90.2646,269.8767,0,U,31698,999,5328,.16539198E-4,.28E-5,0
WORLDVIEW-1 (WV-1),2007-041A,2026-06-19T06:16:31.852992,15.24285763,.00020473,97.3881,289.9753,14.5101,345.6195,0,U,32060,999,4319,.20091239E-3,.4837E-4,0
YAOGAN-3,2007-055A,2026-06-19T08:12:56.227680,14.90785870,.00017898,97.8145,200.1990,80.8543,279.2878,0,U,32289,999,619,.11815218E-3,.1106E-4,0
COSMO-SKYMED 2,2007-059A,2026-06-19T07:42:47.442816,14.82156504,.00013557,97.8886,353.8883,87.9253,272.2115,0,U,32376,999,232,.41988042E-4,.282E-5,0
RADARSAT-2,2007-061A,2026-06-19T06:38:42.494208,14.29983258,.00013161,98.5774,177.1800,84.0255,276.1077,0,U,32382,999,96625,.15882469E-3,.366E-5,0
CARTOSAT-2A,2008-021A,2026-06-19T06:41:25.151712,14.79240036,.00132301,97.7627,218.9163,102.8136,257.4555,0,U,32783,999,97911,.30953186E-4,.18E-5,0
HUANJING 1A (HJ-1A),2008-041A,2026-06-19T06:09:28.353024,14.83991742,.00201526,97.6684,156.0154,128.3103,231.9927,0,U,33320,999,95871,.18170488E-3,.1466E-4,0
HUANJING 1B (HJ-1B),2008-041B,2026-06-19T07:03:25.768800,14.83319388,.00362038,97.6520,159.2168,173.9722,186.1936,0,U,33321,999,95872,.56725284E-4,.418E-5,0
GEOEYE 1,2008-042A,2026-06-19T06:28:14.219328,14.64727421,.00053296,98.1236,244.1745,64.6199,295.5555,0,U,33331,999,95045,.74327636E-4,.348E-5,0
THEOS,2008-049A,2026-06-19T07:03:13.175136,14.20133421,.00012097,98.5565,227.5095,81.1022,279.0292,0,U,33396,999,91826,.6719503E-4,.101E-5,0
COSMO-SKYMED 3,2008-054A,2026-06-19T08:01:29.603424,15.06961763,.001397,97.8280,28.9400,258.4141,101.5518,0,U,33412,999,95726,.10886467E-3,.1565E-4,0
YAOGAN-4,2008-061A,2026-06-19T06:12:09.768960,14.83203506,.00156601,97.9307,103.7535,66.3189,293.9666,0,U,33446,999,94597,.102338E-3,.783E-5,0
GOSAT (IBUKI),2009-002A,2026-06-19T06:02:52.971936,14.67541949,.00015402,98.0895,281.3076,84.9380,275.2001,0,U,33492,999,93176,.16051771E-3,.862E-5,0
DEIMOS-1,2009-041A,2026-06-19T06:56:10.234176,14.75239837,.00017513,97.7408,327.4250,128.2897,231.8470,0,U,35681,999,90719,.92922379E-4,.581E-5,0
