
AQUA
1 27424U 02022A   26170.25377696  .00000595  00000+0  12819-3 0  9998
2 27424  98.4277 139.5779 0001022  54.2403  58.3339 14.62160797283571

ARIRANG-2 (KOMPSAT-2)
1 29268U 06031A   26170.29521094 -.00000042  00000+0  57701-6 0  9997
2 29268  97.8306 354.6391 0015874  68.7036 104.0665 14.64660259 61785

AURA
1 28376U 04026A   26170.24565566  .00000616  00000+0  13447-3 0  9997
2 28376  98.3417 126.7160 0001188  76.5236 283.6097 14.61331831166515

CARTOSAT-2A
1 32783U 08021A   26170.27876333  .00000180  00000+0  30953-4 0  9991
2 32783  97.7627 218.9163 0013230 102.8136 257.4555 14.79240036979119

COSMO-SKYMED 1
1 31598U 07023A   26170.27379564  .00002291  00000+0  20374-3 0  9999
2 31598  97.8850   2.1469 0001457  98.2200 261.9187 14.97108574 30109

COSMO-SKYMED 2
1 32376U 07059A   26170.32138244  .00000282  00000+0  41988-4 0  9990
2 32376  97.8886 353.8883 0001355  87.9253 272.2115 14.82156504  2328

COSMO-SKYMED 3
1 33412U 08054A   26170.33437041  .00001565  00000+0  10886-3 0  9993
2 33412  97.8280  28.9400 0013970 258.4141 101.5518 15.06961763957261

DEIMOS-1
1 35681U 09041A   26170.28900734  .00000581  00000+0  92922-4 0  9997
2 35681  97.7408 327.4250 0001751 128.2897 231.8470 14.75239837907194

DLR-TUBSAT
1 25757U 99029B   26170.22235717  .00000048  00000+0  23575-4 0  9997
2 25757  98.6695 165.7934 0013922 348.9692  11.1195 14.52427246433548

GEOEYE 1
1 33331U 08042A   26170.26960902  .00000348  00000+0  74328-4 0  9999
2 33331  98.1236 244.1745 0005329  64.6199 295.5555 14.64727421950452

GOSAT (IBUKI)
1 33492U 09002A   26170.25200199  .00000862  00000+0  16052-3 0  9998
2 33492  98.0895 281.3076 0001540  84.9380 275.2001 14.67541949931764

HAIYANG-1B
1 31113U 07010A   26169.89281191  .00000067  00000+0  41153-4 0  9990
2 31113  98.3495 151.6719 0013124 191.1687 168.9207 14.31027257   884

HUANJING 1A (HJ-1A)
1 33320U 08041A   26170.25657816  .00001466  00000+0  18170-3 0  9996
2 33320  97.6684 156.0154 0020152 128.3103 231.9927 14.83991742958714

HUANJING 1B (HJ-1B)
1 33321U 08041B   26170.29404825  .00000418  00000+0  56725-4 0  9996
2 33321  97.6520 159.2168 0036203 173.9722 186.1936 14.83319388958723

IRS-P5 (CARTOSAT-1)
1 28649U 05017A   26170.02444269  .00001068  00000+0  11322-3 0  9995
2 28649  97.5306 193.0056 0002537  77.5439 282.6063 14.91053350144093

LAPAN-TUBSAT
1 29709U 07001A   26170.27449223  .00000085  00000+0  16385-4 0  9993
2 29709  98.1339 169.5456 0012058 172.6781 187.4612 14.85950020 51465

MAROC-TUBSAT
1 27004U 01056D   26170.28960075 -.00000038  00000+0  96133-5 0  9996
2 27004  99.8083 347.1887 0020389 136.0283  43.7206 13.70262496226478

RADARSAT-2
1 32382U 07061A   26170.27688072  .00000366  00000+0  15882-3 0  9999
2 32382  98.5774 177.1800 0001316  84.0255 276.1077 14.29983258966258

RESURS-DK 1
1 29228U 06021A   26169.88624838  .00001578  00000+0  94692-4 0  9997
2 29228  69.9330 335.1550 0006884 291.0960  68.9469 15.13223482102837

SCD 1
1 22490U 93009B   26170.23170329  .00000316  00000+0  35452-4 0  9993
2 22490  24.9676 194.9531 0041998 159.2806 244.6874 14.46119368761414

SCD 2
1 25504U 98060A   26170.11553578  .00000346  00000+0  45714-4 0  9997
2 25504  24.9958  60.2648 0016893 143.0637   5.7775 14.45526499460608

SHIYAN-1 (SY-1)
1 28220U 04012A   26170.20605187  .00011166  00000+0  34394-3 0  9996
2 28220  97.8688 248.4057 0005393  26.0877 334.0635 15.33804033211404

SINAH 1
1 28893U 05043D   26170.30935355  .00000231  00000+0  53392-4 0  9992
2 28893  98.2864 304.6438 0013134 269.4618  90.5079 14.64158812100837

TECHSAT 1B (GO-32)
1 25397U 98043D   26170.24192257  .00000033  00000+0  34417-4 0  9996
2 25397  99.0068 163.0524 0001153 158.7829 201.3398 14.24428734451624

TERRA
1 25994U 99068A   26170.28977175  .00000282  00000+0  66439-4 0  9996
2 25994  97.9455 219.7527 0001757 182.5355 303.4138 14.61104555409919

TERRASAR-X
1 31698U 07026A   26168.58693640  .00000280  00000+0  16539-4 0  9993
2 31698  97.4452 176.2866 0001560  90.2646 269.8767 15.19150392 53284

THEOS
1 33396U 08049A   26170.29390249  .00000101  00000+0  67195-4 0  9992
2 33396  98.5565 227.5095 0001209  81.1022 279.0292 14.20133421918268

WORLDVIEW-1 (WV-1)
1 32060U 07041A   26170.26147978  .00004837  00000+0  20091-3 0  9999
2 32060  97.3881 289.9753 0002047  14.5101 345.6195 15.24285763 43190

YAOGAN-3
1 32289U 07055A   26170.34231745  .00001106  00000+0  11815-3 0  9992
2 32289  97.8145 200.1990 0001789  80.8543 279.2878 14.90785870  6192

YAOGAN-4
1 33446U 08061A   26170.25844640  .00000783  00000+0  10234-3 0  9994
2 33446  97.9307 103.7535 0015660  66.3189 293.9666 14.83203506945979
